start=new Date('2022-03-09T00:00:00.000Z').valueOf();
sats=[{"SEMIMAJOR_AXIS":"6925.395","EPOCH":"2022-03-08T20:13:12.724032","LAUNCH_DATE":"2021-05-26","OBJECT_ID":"2021-044E","ELEMENT_SET_NO":"999","EPHEMERIS_TYPE":"0","COUNTRY_CODE":"US","DECAY_DATE":null,"APOAPSIS":"548.298","OBJECT_NAME":"STARLINK-2646","REV_AT_EPOCH":"4337","PERIAPSIS":"546.222","TLE_LINE1":"1 48642U 21044E   22067.84250838 -.00001262  00000-0 -65884-4 0  9998","REF_FRAME":"TEME","OBJECT_TYPE":"PAYLOAD","SITE":"AFETR","FILE":"3351330","INCLINATION":"53.0559","RCS_SIZE":"LARGE","TIME_SYSTEM":"UTC","RA_OF_ASC_NODE":"204.1071","ECCENTRICITY":"0.00014990","GP_ID":"198274945","MEAN_MOTION":"15.06384963","MEAN_ELEMENT_THEORY":"SGP4","ARG_OF_PERICENTER":"78.0916","PERIOD":"95.593","MEAN_ANOMALY":"282.0241","CLASSIFICATION_TYPE":"U","BSTAR":"-0.00006588400000","CENTER_NAME":"EARTH","TLE_LINE2":"2 48642  53.0559 204.1071 0001499  78.0916 282.0241 15.06384963 43373","NORAD_CAT_ID":"48642","MEAN_MOTION_DOT":"-0.00001262","MEAN_MOTION_DDOT":"0.0000000000000"},{"COUNTRY_CODE":"US","EPHEMERIS_TYPE":"0","OBJECT_ID":"2021-044F","ELEMENT_SET_NO":"999","EPOCH":"2022-03-08T18:12:29.001600","SEMIMAJOR_AXIS":"6925.364","LAUNCH_DATE":"2021-05-26","PERIAPSIS":"546.212","REV_AT_EPOCH":"4336","OBJECT_NAME":"STARLINK-2704","APOAPSIS":"548.245","DECAY_DATE":null,"RA_OF_ASC_NODE":"204.4769","RCS_SIZE":"LARGE","TIME_SYSTEM":"UTC","INCLINATION":"53.0552","FILE":"3351330","SITE":"AFETR","OBJECT_TYPE":"PAYLOAD","TLE_LINE1":"1 48643U 21044F   22067.75866900  .00000561  00000-0  56553-4 0  9994","REF_FRAME":"TEME","MEAN_MOTION_DDOT":"0.0000000000000","BSTAR":"0.00005655300000","CLASSIFICATION_TYPE":"U","MEAN_MOTION_DOT":"0.00000561","NORAD_CAT_ID":"48643","TLE_LINE2":"2 48643  53.0552 204.4769 0001468  85.0590 275.0566 15.06395062 43369","CENTER_NAME":"EARTH","MEAN_ANOMALY":"275.0566","PERIOD":"95.592","MEAN_MOTION":"15.06395062","GP_ID":"198275195","ECCENTRICITY":"0.00014680","ARG_OF_PERICENTER":"85.0590","MEAN_ELEMENT_THEORY":"SGP4"},{"FILE":"3351330","INCLINATION":"53.0555","TIME_SYSTEM":"UTC","RCS_SIZE":"LARGE","RA_OF_ASC_NODE":"204.5086","TLE_LINE1":"1 48644U 21044G   22067.75498157  .00001019  00000-0  87287-4 0  9997","REF_FRAME":"TEME","SITE":"AFETR","OBJECT_TYPE":"PAYLOAD","BSTAR":"0.00008728700000","CLASSIFICATION_TYPE":"U","TLE_LINE2":"2 48644  53.0555 204.5086 0001441  64.4970 295.6167 15.06396051 43364","CENTER_NAME":"EARTH","MEAN_MOTION_DOT":"0.00001019","NORAD_CAT_ID":"48644","MEAN_MOTION_DDOT":"0.0000000000000","GP_ID":"198275446","ECCENTRICITY":"0.00014410","MEAN_MOTION":"15.06396051","MEAN_ELEMENT_THEORY":"SGP4","ARG_OF_PERICENTER":"64.4970","PERIOD":"95.592","MEAN_ANOMALY":"295.6167","EPHEMERIS_TYPE":"0","COUNTRY_CODE":"US","SEMIMAJOR_AXIS":"6925.361","EPOCH":"2022-03-08T18:07:10.407648","LAUNCH_DATE":"2021-05-26","OBJECT_ID":"2021-044G","ELEMENT_SET_NO":"999","REV_AT_EPOCH":"4336","PERIAPSIS":"546.228","DECAY_DATE":null,"APOAPSIS":"548.224","OBJECT_NAME":"STARLINK-2695"},{"INCLINATION":"53.0543","FILE":"3351330","RA_OF_ASC_NODE":"204.5201","RCS_SIZE":"LARGE","TIME_SYSTEM":"UTC","REF_FRAME":"TEME","TLE_LINE1":"1 48645U 21044H   22067.75129886 -.00000023  00000-0  17343-4 0  9999","SITE":"AFETR","OBJECT_TYPE":"PAYLOAD","NORAD_CAT_ID":"48645","MEAN_MOTION_DOT":"-0.00000023","TLE_LINE2":"2 48645  53.0543 204.5201 0001464  71.2435 288.8713 15.06393707 43364","CENTER_NAME":"EARTH","BSTAR":"0.00001734300000","CLASSIFICATION_TYPE":"U","MEAN_MOTION_DDOT":"0.0000000000000","ARG_OF_PERICENTER":"71.2435","MEAN_ELEMENT_THEORY":"SGP4","MEAN_MOTION":"15.06393707","GP_ID":"198275697","ECCENTRICITY":"0.00014640","PERIOD":"95.593","MEAN_ANOMALY":"288.8713","EPHEMERIS_TYPE":"0","COUNTRY_CODE":"US","LAUNCH_DATE":"2021-05-26","EPOCH":"2022-03-08T18:01:52.221504","SEMIMAJOR_AXIS":"6925.368","ELEMENT_SET_NO":"999","OBJECT_ID":"2021-044H","REV_AT_EPOCH":"4336","PERIAPSIS":"546.219","APOAPSIS":"548.247","DECAY_DATE":null,"OBJECT_NAME":"STARLINK-2733"},{"MEAN_ELEMENT_THEORY":"SGP4","ARG_OF_PERICENTER":"92.1204","GP_ID":"198274445","ECCENTRICITY":"0.00012550","MEAN_MOTION":"15.06397018","MEAN_ANOMALY":"267.9929","PERIOD":"95.592","TLE_LINE2":"2 48646  53.0547 204.2211 0001255  92.1204 267.9929 15.06397018 43378","CENTER_NAME":"EARTH","NORAD_CAT_ID":"48646","MEAN_MOTION_DOT":"0.00000530","BSTAR":"0.00005444200000","CLASSIFICATION_TYPE":"U","MEAN_MOTION_DDOT":"0.0000000000000","REF_FRAME":"TEME","TLE_LINE1":"1 48646U 21044J   22067.81395438  .00000530  00000-0  54442-4 0  9998","OBJECT_TYPE":"PAYLOAD","SITE":"AFETR","FILE":"3351330","INCLINATION":"53.0547","TIME_SYSTEM":"UTC","RCS_SIZE":"LARGE","RA_OF_ASC_NODE":"204.2211","DECAY_DATE":null,"APOAPSIS":"548.092","OBJECT_NAME":"STARLINK-2732","PERIAPSIS":"546.354","REV_AT_EPOCH":"4337","LAUNCH_DATE":"2021-05-26","SEMIMAJOR_AXIS":"6925.358","EPOCH":"2022-03-08T19:32:05.658432","ELEMENT_SET_NO":"999","OBJECT_ID":"2021-044J","EPHEMERIS_TYPE":"0","COUNTRY_CODE":"US"},{"MEAN_ANOMALY":"291.9932","PERIOD":"95.592","ARG_OF_PERICENTER":"68.1214","MEAN_ELEMENT_THEORY":"SGP4","MEAN_MOTION":"15.06394768","GP_ID":"198274695","ECCENTRICITY":"0.00014780","MEAN_MOTION_DDOT":"0.0000000000000","MEAN_MOTION_DOT":"0.00000492","NORAD_CAT_ID":"48647","CENTER_NAME":"EARTH","TLE_LINE2":"2 48647  53.0555 204.8534 0001478  68.1214 291.9932 15.06394768 43351","CLASSIFICATION_TYPE":"U","BSTAR":"0.00005190000000","SITE":"AFETR","OBJECT_TYPE":"PAYLOAD","REF_FRAME":"TEME","TLE_LINE1":"1 48647U 21044K   22067.67757727  .00000492  00000-0  51900-4 0  9999","RA_OF_ASC_NODE":"204.8534","TIME_SYSTEM":"UTC","RCS_SIZE":"LARGE","INCLINATION":"53.0555","FILE":"3351330","OBJECT_NAME":"STARLINK-2691","APOAPSIS":"548.253","DECAY_DATE":null,"PERIAPSIS":"546.206","REV_AT_EPOCH":"4335","ELEMENT_SET_NO":"999","OBJECT_ID":"2021-044K","LAUNCH_DATE":"2021-05-26","EPOCH":"2022-03-08T16:15:42.676128","SEMIMAJOR_AXIS":"6925.365","COUNTRY_CODE":"US","EPHEMERIS_TYPE":"0"},{"OBJECT_NAME":"STARLINK-2521","APOAPSIS":"548.176","DECAY_DATE":null,"PERIAPSIS":"546.341","REV_AT_EPOCH":"4335","ELEMENT_SET_NO":"999","OBJECT_ID":"2021-044L","LAUNCH_DATE":"2021-05-26","EPOCH":"2022-03-08T16:14:22.073568","SEMIMAJOR_AXIS":"6925.393","COUNTRY_CODE":"US","EPHEMERIS_TYPE":"0","MEAN_ANOMALY":"283.0384","PERIOD":"95.593","ARG_OF_PERICENTER":"77.0752","MEAN_ELEMENT_THEORY":"SGP4","MEAN_MOTION":"15.06385415","ECCENTRICITY":"0.00013250","GP_ID":"198275947","MEAN_MOTION_DDOT":"0.0000000000000","MEAN_MOTION_DOT":"-0.00001515","NORAD_CAT_ID":"48648","CENTER_NAME":"EARTH","TLE_LINE2":"2 48648  53.0554 204.8540 0001325  77.0752 283.0384 15.06385415 43357","BSTAR":"-0.00008286000000","CLASSIFICATION_TYPE":"U","SITE":"AFETR","OBJECT_TYPE":"PAYLOAD","REF_FRAME":"TEME","TLE_LINE1":"1 48648U 21044L   22067.67664437 -.00001515  00000-0 -82860-4 0  9993","RA_OF_ASC_NODE":"204.8540","RCS_SIZE":"LARGE","TIME_SYSTEM":"UTC","INCLINATION":"53.0554","FILE":"3351330"},{"INCLINATION":"53.0545","FILE":"3351330","RA_OF_ASC_NODE":"204.5567","TIME_SYSTEM":"UTC","RCS_SIZE":"LARGE","REF_FRAME":"TEME","TLE_LINE1":"1 48649U 21044M   22067.74024221 -.00000782  00000-0 -33647-4 0  9997","OBJECT_TYPE":"PAYLOAD","SITE":"AFETR","MEAN_MOTION_DOT":"-0.00000782","NORAD_CAT_ID":"48649","TLE_LINE2":"2 48649  53.0545 204.5567 0001562  59.2087 300.9055 15.06387130 43350","CENTER_NAME":"EARTH","BSTAR":"-0.00003364700000","CLASSIFICATION_TYPE":"U","MEAN_MOTION_DDOT":"0.0000000000000","ARG_OF_PERICENTER":"59.2087","MEAN_ELEMENT_THEORY":"SGP4","MEAN_MOTION":"15.06387130","GP_ID":"198276198","ECCENTRICITY":"0.00015620","MEAN_ANOMALY":"300.9055","PERIOD":"95.593","EPHEMERIS_TYPE":"0","COUNTRY_CODE":"US","LAUNCH_DATE":"2021-05-26","EPOCH":"2022-03-08T17:45:56.926944","SEMIMAJOR_AXIS":"6925.388","ELEMENT_SET_NO":"999","OBJECT_ID":"2021-044M","PERIAPSIS":"546.171","REV_AT_EPOCH":"4335","APOAPSIS":"548.335","DECAY_DATE":null,"OBJECT_NAME":"STARLINK-2673"},{"MEAN_MOTION_DDOT":"0.0000000000000","CENTER_NAME":"EARTH","TLE_LINE2":"2 48650  53.0543 203.9870 0001437  88.9993 271.1161 15.06385068 43373","NORAD_CAT_ID":"48650","MEAN_MOTION_DOT":"0.00001162","CLASSIFICATION_TYPE":"U","BSTAR":"0.00009695800000","PERIOD":"95.593","MEAN_ANOMALY":"271.1161","MEAN_ELEMENT_THEORY":"SGP4","ARG_OF_PERICENTER":"88.9993","GP_ID":"198274946","ECCENTRICITY":"0.00014370","MEAN_MOTION":"15.06385068","RCS_SIZE":"LARGE","TIME_SYSTEM":"UTC","RA_OF_ASC_NODE":"203.9870","FILE":"3351330","INCLINATION":"53.0543","OBJECT_TYPE":"PAYLOAD","SITE":"AFETR","REF_FRAME":"TEME","TLE_LINE1":"1 48650U 21044N   22067.86926017  .00001162  00000-0  96958-4 0  9991","PERIAPSIS":"546.264","REV_AT_EPOCH":"4337","OBJECT_NAME":"STARLINK-2672","DECAY_DATE":null,"APOAPSIS":"548.255","COUNTRY_CODE":"US","EPHEMERIS_TYPE":"0","ELEMENT_SET_NO":"999","OBJECT_ID":"2021-044N","LAUNCH_DATE":"2021-05-26","SEMIMAJOR_AXIS":"6925.394","EPOCH":"2022-03-08T20:51:44.078688"},{"PERIOD":"95.592","MEAN_ANOMALY":"282.1932","ARG_OF_PERICENTER":"77.9218","MEAN_ELEMENT_THEORY":"SGP4","MEAN_MOTION":"15.06394373","ECCENTRICITY":"0.00014410","GP_ID":"198275196","MEAN_MOTION_DDOT":"0.0000000000000","MEAN_MOTION_DOT":"0.00000548","NORAD_CAT_ID":"48651","CENTER_NAME":"EARTH","TLE_LINE2":"2 48651  53.0566 204.0026 0001441  77.9218 282.1932 15.06394373 43374","BSTAR":"0.00005567900000","CLASSIFICATION_TYPE":"U","OBJECT_TYPE":"PAYLOAD","SITE":"AFETR","REF_FRAME":"TEME","TLE_LINE1":"1 48651U 21044P   22067.86556136  .00000548  00000-0  55679-4 0  9995","RA_OF_ASC_NODE":"204.0026","RCS_SIZE":"LARGE","TIME_SYSTEM":"UTC","INCLINATION":"53.0566","FILE":"3351330","OBJECT_NAME":"STARLINK-2731","APOAPSIS":"548.229","DECAY_DATE":null,"PERIAPSIS":"546.233","REV_AT_EPOCH":"4337","ELEMENT_SET_NO":"999","OBJECT_ID":"2021-044P","LAUNCH_DATE":"2021-05-26","EPOCH":"2022-03-08T20:46:24.501504","SEMIMAJOR_AXIS":"6925.366","COUNTRY_CODE":"US","EPHEMERIS_TYPE":"0"}];
